CCSDS_OMM_VERS = 2.0
CREATION_DATE  = 
ORIGINATOR     = 

OBJECT_NAME    = STARLINK-36435
OBJECT_ID      = 2026-016H
CENTER_NAME    = EARTH
REF_FRAME      = TEME
TIME_SYSTEM    = UTC
MEAN_ELEMENT_THEORY = SGP/SGP4

EPOCH          = 2026-02-19T03:16:32.470752
MEAN_MOTION    = 15.80916064
ECCENTRICITY   = .0000939
INCLINATION    = 97.2829
RA_OF_ASC_NODE = 109.7190
ARG_OF_PERICENTER = 150.8808
MEAN_ANOMALY   = 209.2513

EPHEMERIS_TYPE = 0
CLASSIFICATION_TYPE = U
NORAD_CAT_ID   = 67568
ELEMENT_SET_NO = 999
REV_AT_EPOCH   = 388
BSTAR          = .14389E-2
MEAN_MOTION_DOT = .286008E-2
MEAN_MOTION_DDOT = 0

CCSDS_OMM_VERS = 2.0
CREATION_DATE  = 
ORIGINATOR     = 

OBJECT_NAME    = STARLINK-36575
OBJECT_ID      = 2026-016J
CENTER_NAME    = EARTH
REF_FRAME      = TEME
TIME_SYSTEM    = UTC
MEAN_ELEMENT_THEORY = SGP/SGP4

EPOCH          = 2026-02-19T03:14:48.205824
MEAN_MOTION    = 15.80906407
ECCENTRICITY   = .00018453
INCLINATION    = 97.2829
RA_OF_ASC_NODE = 109.7243
ARG_OF_PERICENTER = 113.9680
MEAN_ANOMALY   = 246.1781

EPHEMERIS_TYPE = 0
CLASSIFICATION_TYPE = U
NORAD_CAT_ID   = 67569
ELEMENT_SET_NO = 999
REV_AT_EPOCH   = 388
BSTAR          = .11472373E-2
MEAN_MOTION_DOT = .22634E-2
MEAN_MOTION_DDOT = 0

CCSDS_OMM_VERS = 2.0
CREATION_DATE  = 
ORIGINATOR     = 

OBJECT_NAME    = STARLINK-36562
OBJECT_ID      = 2026-016K
CENTER_NAME    = EARTH
REF_FRAME      = TEME
TIME_SYSTEM    = UTC
MEAN_ELEMENT_THEORY = SGP/SGP4

EPOCH          = 2026-02-19T03:13:29.102304
MEAN_MOTION    = 15.81013528
ECCENTRICITY   = .00018323
INCLINATION    = 97.2822
RA_OF_ASC_NODE = 109.7253
ARG_OF_PERICENTER = 133.5478
MEAN_ANOMALY   = 226.5942

EPHEMERIS_TYPE = 0
CLASSIFICATION_TYPE = U
NORAD_CAT_ID   = 67570
ELEMENT_SET_NO = 999
REV_AT_EPOCH   = 388
BSTAR          = .2001191E-2
MEAN_MOTION_DOT = .405164E-2
MEAN_MOTION_DDOT = 0

CCSDS_OMM_VERS = 2.0
CREATION_DATE  = 
ORIGINATOR     = 

OBJECT_NAME    = STARLINK-36578
OBJECT_ID      = 2026-016L
CENTER_NAME    = EARTH
REF_FRAME      = TEME
TIME_SYSTEM    = UTC
MEAN_ELEMENT_THEORY = SGP/SGP4

EPOCH          = 2026-02-19T05:33:37.512288
MEAN_MOTION    = 15.75206296
ECCENTRICITY   = .0000811
INCLINATION    = 97.2831
RA_OF_ASC_NODE = 109.7439
ARG_OF_PERICENTER = 118.2766
MEAN_ANOMALY   = 241.8581

EPHEMERIS_TYPE = 0
CLASSIFICATION_TYPE = U
NORAD_CAT_ID   = 67571
ELEMENT_SET_NO = 999
REV_AT_EPOCH   = 389
BSTAR          = .12272E-2
MEAN_MOTION_DOT = .187105E-2
MEAN_MOTION_DDOT = 0

CCSDS_OMM_VERS = 2.0
CREATION_DATE  = 
ORIGINATOR     = 

OBJECT_NAME    = STARLINK-36350
OBJECT_ID      = 2026-016M
CENTER_NAME    = EARTH
REF_FRAME      = TEME
TIME_SYSTEM    = UTC
MEAN_ELEMENT_THEORY = SGP/SGP4

EPOCH          = 2026-02-19T05:22:26.559264
MEAN_MOTION    = 15.75259538
ECCENTRICITY   = .0002008
INCLINATION    = 97.2836
RA_OF_ASC_NODE = 109.7526
ARG_OF_PERICENTER = 88.9618
MEAN_ANOMALY   = 271.1877

EPHEMERIS_TYPE = 0
CLASSIFICATION_TYPE = U
NORAD_CAT_ID   = 67572
ELEMENT_SET_NO = 999
REV_AT_EPOCH   = 389
BSTAR          = .99222E-3
MEAN_MOTION_DOT = .15097E-2
MEAN_MOTION_DDOT = 0

CCSDS_OMM_VERS = 2.0
CREATION_DATE  = 
ORIGINATOR     = 

OBJECT_NAME    = STARLINK-36588
OBJECT_ID      = 2026-016N
CENTER_NAME    = EARTH
REF_FRAME      = TEME
TIME_SYSTEM    = UTC
MEAN_ELEMENT_THEORY = SGP/SGP4

EPOCH          = 2026-02-19T05:25:29.756640
MEAN_MOTION    = 15.75201784
ECCENTRICITY   = .0001287
INCLINATION    = 97.2835
RA_OF_ASC_NODE = 109.7510
ARG_OF_PERICENTER = 112.6106
MEAN_ANOMALY   = 247.5295

EPHEMERIS_TYPE = 0
CLASSIFICATION_TYPE = U
NORAD_CAT_ID   = 67573
ELEMENT_SET_NO = 999
REV_AT_EPOCH   = 389
BSTAR          = .11047E-2
MEAN_MOTION_DOT = .168008E-2
MEAN_MOTION_DDOT = 0

CCSDS_OMM_VERS = 2.0
CREATION_DATE  = 
ORIGINATOR     = 

OBJECT_NAME    = STARLINK-36594
OBJECT_ID      = 2026-016P
CENTER_NAME    = EARTH
REF_FRAME      = TEME
TIME_SYSTEM    = UTC
MEAN_ELEMENT_THEORY = SGP/SGP4

EPOCH          = 2026-02-19T03:06:41.787648
MEAN_MOTION    = 15.80970017
ECCENTRICITY   = .00022892
INCLINATION    = 97.2822
RA_OF_ASC_NODE = 109.7293
ARG_OF_PERICENTER = 128.5692
MEAN_ANOMALY   = 231.5781

EPHEMERIS_TYPE = 0
CLASSIFICATION_TYPE = U
NORAD_CAT_ID   = 67574
ELEMENT_SET_NO = 999
REV_AT_EPOCH   = 388
BSTAR          = .12342936E-2
MEAN_MOTION_DOT = .24476E-2
MEAN_MOTION_DDOT = 0

CCSDS_OMM_VERS = 2.0
CREATION_DATE  = 
ORIGINATOR     = 

OBJECT_NAME    = STARLINK-36400
OBJECT_ID      = 2026-016Q
CENTER_NAME    = EARTH
REF_FRAME      = TEME
TIME_SYSTEM    = UTC
MEAN_ELEMENT_THEORY = SGP/SGP4

EPOCH          = 2026-02-19T03:28:36.304032
MEAN_MOTION    = 15.75248830
ECCENTRICITY   = .00016552
INCLINATION    = 97.2838
RA_OF_ASC_NODE = 109.7089
ARG_OF_PERICENTER = 39.5283
MEAN_ANOMALY   = 320.6103

EPHEMERIS_TYPE = 0
CLASSIFICATION_TYPE = U
NORAD_CAT_ID   = 67575
ELEMENT_SET_NO = 999
REV_AT_EPOCH   = 388
BSTAR          = .11710635E-2
MEAN_MOTION_DOT = .1787E-2
MEAN_MOTION_DDOT = 0

CCSDS_OMM_VERS = 2.0
CREATION_DATE  = 
ORIGINATOR     = 

OBJECT_NAME    = STARLINK-36591
OBJECT_ID      = 2026-016R
CENTER_NAME    = EARTH
REF_FRAME      = TEME
TIME_SYSTEM    = UTC
MEAN_ELEMENT_THEORY = SGP/SGP4

EPOCH          = 2026-02-19T12:00:02.998944
MEAN_MOTION    = 15.75176942
ECCENTRICITY   = .0001139
INCLINATION    = 97.2848
RA_OF_ASC_NODE = 110.1099
ARG_OF_PERICENTER = 90.8842
MEAN_ANOMALY   = 189.9240

EPHEMERIS_TYPE = 0
CLASSIFICATION_TYPE = U
NORAD_CAT_ID   = 67576
ELEMENT_SET_NO = 999
REV_AT_EPOCH   = 512
BSTAR          = -.53489E-4
MEAN_MOTION_DOT = -.8095E-4
MEAN_MOTION_DDOT = 0

CCSDS_OMM_VERS = 2.0
CREATION_DATE  = 
ORIGINATOR     = 

OBJECT_NAME    = STARLINK-36590
OBJECT_ID      = 2026-016S
CENTER_NAME    = EARTH
REF_FRAME      = TEME
TIME_SYSTEM    = UTC
MEAN_ELEMENT_THEORY = SGP/SGP4

EPOCH          = 2026-02-19T05:05:40.375968
MEAN_MOTION    = 15.75216955
ECCENTRICITY   = .0002144
INCLINATION    = 97.2844
RA_OF_ASC_NODE = 109.7693
ARG_OF_PERICENTER = 98.4492
MEAN_ANOMALY   = 261.7017

EPHEMERIS_TYPE = 0
CLASSIFICATION_TYPE = U
NORAD_CAT_ID   = 67577
ELEMENT_SET_NO = 999
REV_AT_EPOCH   = 389
BSTAR          = .41283E-3
MEAN_MOTION_DOT = .61971E-3
MEAN_MOTION_DDOT = 0

CCSDS_OMM_VERS = 2.0
CREATION_DATE  = 
ORIGINATOR     = 

OBJECT_NAME    = STARLINK-36613
OBJECT_ID      = 2026-016T
CENTER_NAME    = EARTH
REF_FRAME      = TEME
TIME_SYSTEM    = UTC
MEAN_ELEMENT_THEORY = SGP/SGP4

EPOCH          = 2026-02-19T03:00:45.080064
MEAN_MOTION    = 15.80891139
ECCENTRICITY   = .0001707
INCLINATION    = 97.2820
RA_OF_ASC_NODE = 109.7341
ARG_OF_PERICENTER = 126.6966
MEAN_ANOMALY   = 233.4459

EPHEMERIS_TYPE = 0
CLASSIFICATION_TYPE = U
NORAD_CAT_ID   = 67578
ELEMENT_SET_NO = 999
REV_AT_EPOCH   = 388
BSTAR          = .82656E-3
MEAN_MOTION_DOT = .161709E-2
MEAN_MOTION_DDOT = 0

CCSDS_OMM_VERS = 2.0
CREATION_DATE  = 
ORIGINATOR     = 

OBJECT_NAME    = STARLINK-36571
OBJECT_ID      = 2026-016U
CENTER_NAME    = EARTH
REF_FRAME      = TEME
TIME_SYSTEM    = UTC
MEAN_ELEMENT_THEORY = SGP/SGP4

EPOCH          = 2026-02-19T03:39:47.458368
MEAN_MOTION    = 15.75216752
ECCENTRICITY   = .00012328
INCLINATION    = 97.2836
RA_OF_ASC_NODE = 109.6976
ARG_OF_PERICENTER = 9.7381
MEAN_ANOMALY   = 350.3907

EPHEMERIS_TYPE = 0
CLASSIFICATION_TYPE = U
NORAD_CAT_ID   = 67579
ELEMENT_SET_NO = 999
REV_AT_EPOCH   = 388
BSTAR          = .10266667E-2
MEAN_MOTION_DOT = .156013E-2
MEAN_MOTION_DDOT = 0

