STARLINK-36435          
1 67568U 26016H   26050.13648693  .00286008  00000+0  14389-2 0  9990
2 67568  97.2829 109.7190 0000939 150.8808 209.2513 15.80916064  3880
STARLINK-36575          
1 67569U 26016J   26050.13528016  .00226340  00000+0  11472-2 0  9990
2 67569  97.2829 109.7243 0001845 113.9680 246.1781 15.80906407  3882
STARLINK-36562          
1 67570U 26016K   26050.13436461  .00405164  00000+0  20012-2 0  9997
2 67570  97.2822 109.7253 0001832 133.5478 226.5942 15.81013528  3882
STARLINK-36578          
1 67571U 26016L   26050.23168417  .00187105  00000+0  12272-2 0  9993
2 67571  97.2831 109.7439 0000811 118.2766 241.8581 15.75206296  3894
STARLINK-36350          
1 67572U 26016M   26050.22391851  .00150970  00000+0  99222-3 0  9994
2 67572  97.2836 109.7526 0002008  88.9618 271.1877 15.75259538  3897
STARLINK-36588          
1 67573U 26016N   26050.22603885  .00168008  00000+0  11047-2 0  9997
2 67573  97.2835 109.7510 0001287 112.6106 247.5295 15.75201784  3896
STARLINK-36594          
1 67574U 26016P   26050.12965032  .00244760  00000+0  12343-2 0  9992
2 67574  97.2822 109.7293 0002289 128.5692 231.5781 15.80970017  3880
STARLINK-36400          
1 67575U 26016Q   26050.14486463  .00178700  00000+0  11711-2 0  9999
2 67575  97.2838 109.7089 0001655  39.5283 320.6103 15.75248830  3887
STARLINK-36591          
1 67576U 26016R   26050.50003471 -.00008095  00000+0 -53489-4 0  9995
2 67576  97.2848 110.1099 0001139  90.8842 189.9240 15.75176942  5125
STARLINK-36590          
1 67577U 26016S   26050.21227287  .00061971  00000+0  41283-3 0  9995
2 67577  97.2844 109.7693 0002144  98.4492 261.7017 15.75216955  3890
STARLINK-36613          
1 67578U 26016T   26050.12552176  .00161709  00000+0  82656-3 0  9993
2 67578  97.2820 109.7341 0001707 126.6966 233.4459 15.80891139  3883
STARLINK-36571          
1 67579U 26016U   26050.15263262  .00156013  00000+0  10267-2 0  9992
2 67579  97.2836 109.6976 0001232   9.7381 350.3907 15.75216752  3882
